{
  "norad_id": 58603,
  "name": "STARLINK-31080",
  "history": [
    {
      "epoch": "2026-03-28T15:24:40.560768Z",
      "apogee_km": 485.9079861453347,
      "perigee_km": 485.1914172536772,
      "latitude_deg": -3.758209292776466e-05,
      "longitude_deg": 4.213102660798217,
      "height_km": 485.3223226978345,
      "semi_major_axis_km": 6863.686701699506,
      "eccentricity": 5.22e-05,
      "inclination_deg": 43.0048,
      "raan_deg": 61.4418,
      "arg_perigee_deg": 270.6274,
      "mean_anomaly_deg": 89.4517,
      "mean_motion_rev_day": 15.26745275
    }
  ]
}